{"type":"FeatureCollection","features":[{"type":"Feature","properties":{"zona":1,"nombre":"Bª SAN MARTIN","color":"#ca2435","punto":false},"geometry":{"type":"Polygon","coordinates":[[[-68.244397,-31.625848],[-68.245564,-31.629758],[-68.241221,-31.631],[-68.239908,-31.626725],[-68.244397,-31.625848]]]}},{"type":"Feature","properties":{"zona":1,"nombre":"COSTA CANAL","color":"#3fa9dd","punto":false},"geometry":{"type":"Polygon","coordinates":[[[-68.242539,-31.631918],[-68.237909,-31.640976],[-68.236185,-31.639739],[-68.241221,-31.631],[-68.242539,-31.631918]]]}},{"type":"Feature","properties":{"zona":1,"nombre":"BARRIO SAN CAYETANO- LAS CASILLAS","color":"#fada3f","punto":false},"geometry":{"type":"Polygon","coordinates":[[[-68.23434,-31.641032],[-68.235405,-31.640798],[-68.23549,-31.641733],[-68.229637,-31.642581],[-68.229551,-31.641675],[-68.232675,-31.641149],[-68.232315,-31.638723],[-68.233722,-31.638489],[-68.23434,-31.641032]]]}},{"type":"Feature","properties":{"zona":1,"nombre":"ESCUELA JOSE MARIA DE LOS RIOS","color":"#7c9f21","punto":true},"geometry":{"type":"Point","coordinates":[-68.23657,-31.640657]}},{"type":"Feature","properties":{"zona":2,"nombre":"FERROCARRIL -CONJUNTO 7","color":"#ca2435","punto":false},"geometry":{"type":"Polygon","coordinates":[[[-68.220547,-31.655124],[-68.222332,-31.663672],[-68.219689,-31.663745],[-68.218058,-31.658996],[-68.216324,-31.659347],[-68.215637,-31.656249],[-68.220547,-31.655124]]]}},{"type":"Feature","properties":{"zona":2,"nombre":"CAPILLA LA MERCED","color":"#3fa9dd","punto":true},"geometry":{"type":"Point","coordinates":[-68.219432,-31.655546]}},{"type":"Feature","properties":{"zona":3,"nombre":"BARRIO LAS VIÑAS","color":"#ca2435","punto":false},"geometry":{"type":"Polygon","coordinates":[[[-68.22554,-31.66703],[-68.225866,-31.668608],[-68.22221,-31.669265],[-68.221867,-31.667643],[-68.225437,-31.667],[-68.22554,-31.66703]]]}},{"type":"Feature","properties":{"zona":3,"nombre":"BARRIO RAUL GOMEZ","color":"#3fa9dd","punto":false},"geometry":{"type":"Polygon","coordinates":[[[-68.24463,-31.663643],[-68.245265,-31.666208],[-68.24075,-31.666946],[-68.240167,-31.664367],[-68.24463,-31.663643]]]}},{"type":"Feature","properties":{"zona":3,"nombre":"CAPILLA JESUS MISERICORDIOSO","color":"#fada3f","punto":true},"geometry":{"type":"Point","coordinates":[-68.244827,-31.665806]}},{"type":"Feature","properties":{"zona":4,"nombre":"Conjunto 5","color":"#3fa9dd","punto":false},"geometry":{"type":"Polygon","coordinates":[[[-68.215465,-31.705649],[-68.216263,-31.705451],[-68.214684,-31.705846],[-68.215465,-31.705649]]]}},{"type":"Feature","properties":{"zona":4,"nombre":"Conjunto 5","color":"#3fa9dd","punto":false},"geometry":{"type":"Polygon","coordinates":[[[-68.215465,-31.705649],[-68.216263,-31.705451],[-68.214684,-31.705846],[-68.215465,-31.705649]]]}},{"type":"Feature","properties":{"zona":4,"nombre":"Control forestal","color":"#fada3f","punto":false},"geometry":{"type":"Polygon","coordinates":[[[-68.193984,-31.694709],[-68.192688,-31.695914],[-68.185813,-31.695403],[-68.186251,-31.694037],[-68.193984,-31.694709]]]}},{"type":"Feature","properties":{"zona":4,"nombre":"Lugar de almuerzo","color":"#7c9f21","punto":true},"geometry":{"type":"Point","coordinates":[-68.214782,-31.702616]}},{"type":"Feature","properties":{"zona":5,"nombre":"CAPILLA GUADALUPE","color":"#ca2435","punto":true},"geometry":{"type":"Point","coordinates":[-68.306195,-31.664967]}},{"type":"Feature","properties":{"zona":5,"nombre":"ASIA 1,2 Y3","color":"#3fa9dd","punto":false},"geometry":{"type":"Polygon","coordinates":[[[-68.313988,-31.662538],[-68.3144,-31.664087],[-68.306263,-31.665577],[-68.307568,-31.671472],[-68.306126,-31.671706],[-68.30465,-31.665278],[-68.292393,-31.667352],[-68.291604,-31.664401],[-68.298161,-31.663378],[-68.29562,-31.653698],[-68.306298,-31.652149],[-68.313988,-31.662538]]]}},{"type":"Feature","properties":{"zona":6,"nombre":"BARRIO PAPA FRANCISCO Y CALLE LAVALLE","color":"#ca2435","punto":false},"geometry":{"type":"Polygon","coordinates":[[[-68.316064,-31.589457],[-68.316408,-31.590685],[-68.303945,-31.592616],[-68.303705,-31.591592],[-68.305456,-31.591387],[-68.304838,-31.588141],[-68.306417,-31.587966],[-68.307138,-31.590773],[-68.316064,-31.589457]]]}},{"type":"Feature","properties":{"zona":6,"nombre":"CALLE LAPLATA Y RIO NEGRO","color":"#3fa9dd","punto":false},"geometry":{"type":"Polygon","coordinates":[[[-68.304695,-31.593281],[-68.307236,-31.603399],[-68.318428,-31.601352],[-68.319114,-31.603399],[-68.305897,-31.605328],[-68.302944,-31.593485],[-68.304695,-31.593281]]]}},{"type":"Feature","properties":{"zona":6,"nombre":"CAPILLA SAN ISIDRO - BASE DE ALMUERZO","color":"#fada3f","punto":true},"geometry":{"type":"Point","coordinates":[-68.30413,-31.591861]}},{"type":"Feature","properties":{"zona":7,"nombre":"MERENDERO ESPERANZA","color":"#ca2435","punto":true},"geometry":{"type":"Point","coordinates":[-68.277424,-31.667001]}},{"type":"Feature","properties":{"zona":7,"nombre":"BARRIO CURA BROCHERO","color":"#3fa9dd","punto":false},"geometry":{"type":"Polygon","coordinates":[[[-68.278006,-31.668436],[-68.278392,-31.670029],[-68.271302,-31.671238],[-68.27089,-31.66966],[-68.278006,-31.668436]]]}},{"type":"Feature","properties":{"zona":7,"nombre":"VILLA LAS ROSAS","color":"#fada3f","punto":false},"geometry":{"type":"Polygon","coordinates":[[[-68.277744,-31.667148],[-68.278006,-31.668436],[-68.27089,-31.66966],[-68.270594,-31.66839],[-68.277744,-31.667148]]]}},{"type":"Feature","properties":{"zona":7,"nombre":"BARRIO LOS OLIVOS","color":"#7c9f21","punto":false},"geometry":{"type":"Polygon","coordinates":[[[-68.276692,-31.663003],[-68.277679,-31.66712],[-68.274547,-31.667642],[-68.273731,-31.664077],[-68.275508,-31.663778],[-68.275414,-31.663223],[-68.276692,-31.663003]]]}},{"type":"Feature","properties":{"zona":7,"nombre":"OCEANIA 1","color":"#825574","punto":false},"geometry":{"type":"Polygon","coordinates":[[[-68.276644,-31.668762],[-68.278026,-31.668528],[-68.278392,-31.670029],[-68.271302,-31.671238],[-68.271142,-31.670515],[-68.276833,-31.669595],[-68.276644,-31.668762]]]}},{"type":"Feature","properties":{"zona":7,"nombre":"OCEANIA 2","color":"#e8842c","punto":false},"geometry":{"type":"Polygon","coordinates":[[[-68.276644,-31.668762],[-68.276759,-31.669464],[-68.27112,-31.670435],[-68.270594,-31.66839],[-68.271017,-31.66836],[-68.271309,-31.669602],[-68.276644,-31.668762]]]}},{"type":"Feature","properties":{"zona":7,"nombre":"OCEANIA 4.1","color":"#e68a93","punto":false},"geometry":{"type":"Polygon","coordinates":[[[-68.275054,-31.668841],[-68.275317,-31.670129],[-68.268626,-31.671227],[-68.268328,-31.670053],[-68.275054,-31.668841]]]}},{"type":"Feature","properties":{"zona":7,"nombre":"OCEANIA 3","color":"#c7a4d3","punto":false},"geometry":{"type":"Polygon","coordinates":[[[-68.276137,-31.665112],[-68.276652,-31.667311],[-68.274579,-31.667662],[-68.274025,-31.665394],[-68.276137,-31.665112]]]}},{"type":"Feature","properties":{"zona":7,"nombre":"OCEANIA 4.2","color":"#ffffff","punto":false},"geometry":{"type":"Polygon","coordinates":[[[-68.275923,-31.665134],[-68.277254,-31.66483],[-68.277759,-31.66712],[-68.276447,-31.667351],[-68.275923,-31.665134]]]}}]}